{
  "type": "FeatureCollection",
  "features": [
    {
      "type": "Feature",
      "properties": {
        "norad_id": 66864,
        "name": "STARLINK-36070",
        "group": "last-30-days",
        "lat": -2.367313821922183,
        "lon": -142.60359658763292,
        "alt_km": 414.7464472229267,
        "timestamp": "2025-12-27T05:29:37.917803+00:00",
        "meta_object_name": "STARLINK-36070",
        "meta_object_id": "2025-281S",
        "meta_epoch": "2025-12-26T22:00:01.999584",
        "meta_mean_motion": 15.50571003,
        "meta_eccentricity": 0.00011782,
        "meta_inclination": 43.0004,
        "meta_ra_of_asc_node": 36.6804,
        "meta_arg_of_pericenter": 248.5632,
        "meta_mean_anomaly": 349.8962,
        "meta_ephemeris_type": 0,
        "meta_classification_type": "U",
        "meta_norad_cat_id": 66864,
        "meta_element_set_no": 999,
        "meta_rev_at_epoch": 369,
        "meta_bstar": 0.00073057914,
        "meta_mean_motion_dot": 0.0004274,
        "meta_mean_motion_ddot": 0,
        "tle_line1": "1 66864U 25281S   25360.91668981  .00042740  00000+0  73058-3 0  9994",
        "tle_line2": "2 66864  43.0004  36.6804 0001178 248.5632 349.8962 15.50571003  3693"
      },
      "geometry": {
        "type": "Point",
        "coordinates": [
          -142.60359658763292,
          -2.367313821922183
        ]
      }
    },
    {
      "type": "Feature",
      "properties": {
        "norad_id": 66865,
        "name": "STARLINK-36117",
        "group": "last-30-days",
        "lat": -5.064989947481581,
        "lon": -139.69790505887633,
        "alt_km": 415.45149595832663,
        "timestamp": "2025-12-27T05:29:37.917813+00:00",
        "meta_object_name": "STARLINK-36117",
        "meta_object_id": "2025-281T",
        "meta_epoch": "2025-12-26T22:00:01.999584",
        "meta_mean_motion": 15.50706626,
        "meta_eccentricity": 0.00011882,
        "meta_inclination": 43.0005,
        "meta_ra_of_asc_node": 36.6711,
        "meta_arg_of_pericenter": 265.8212,
        "meta_mean_anomaly": 336.5661,
        "meta_ephemeris_type": 0,
        "meta_classification_type": "U",
        "meta_norad_cat_id": 66865,
        "meta_element_set_no": 999,
        "meta_rev_at_epoch": 366,
        "meta_bstar": -0.0047007398,
        "meta_mean_motion_dot": -0.00268092,
        "meta_mean_motion_ddot": 0,
        "tle_line1": "1 66865U 25281T   25360.91668981 -.00268092  00000+0 -47007-2 0  9991",
        "tle_line2": "2 66865  43.0005  36.6711 0001188 265.8212 336.5661 15.50706626  3666"
      },
      "geometry": {
        "type": "Point",
        "coordinates": [
          -139.69790505887633,
          -5.064989947481581
        ]
      }
    },
    {
      "type": "Feature",
      "properties": {
        "norad_id": 66866,
        "name": "STARLINK-36126",
        "group": "last-30-days",
        "lat": -6.281888888470194,
        "lon": -138.3767040185477,
        "alt_km": 415.14087995737646,
        "timestamp": "2025-12-27T05:29:37.917823+00:00",
        "meta_object_name": "STARLINK-36126",
        "meta_object_id": "2025-281U",
        "meta_epoch": "2025-12-26T22:00:01.999584",
        "meta_mean_motion": 15.50582003,
        "meta_eccentricity": 0.00011355,
        "meta_inclination": 43.0005,
        "meta_ra_of_asc_node": 36.6658,
        "meta_arg_of_pericenter": 244.4812,
        "meta_mean_anomaly": 359.7378,
        "meta_ephemeris_type": 0,
        "meta_classification_type": "U",
        "meta_norad_cat_id": 66866,
        "meta_element_set_no": 999,
        "meta_rev_at_epoch": 369,
        "meta_bstar": 0.00020833652,
        "meta_mean_motion_dot": 0.000119,
        "meta_mean_motion_ddot": 0,
        "tle_line1": "1 66866U 25281U   25360.91668981  .00011900  00000+0  20834-3 0  9994",
        "tle_line2": "2 66866  43.0005  36.6658 0001135 244.4812 359.7378 15.50582003  3694"
      },
      "geometry": {
        "type": "Point",
        "coordinates": [
          -138.3767040185477,
          -6.281888888470194
        ]
      }
    },
    {
      "type": "Feature",
      "properties": {
        "norad_id": 66867,
        "name": "STARLINK-36101",
        "group": "last-30-days",
        "lat": -7.63239657733687,
        "lon": -136.89709252707183,
        "alt_km": 415.4162251066291,
        "timestamp": "2025-12-27T05:29:37.917833+00:00",
        "meta_object_name": "STARLINK-36101",
        "meta_object_id": "2025-281V",
        "meta_epoch": "2025-12-26T22:00:01.999584",
        "meta_mean_motion": 15.50586057,
        "meta_eccentricity": 0.00010743,
        "meta_inclination": 43.0004,
        "meta_ra_of_asc_node": 36.6616,
        "meta_arg_of_pericenter": 242.7959,
        "meta_mean_anomaly": 3.4445,
        "meta_ephemeris_type": 0,
        "meta_classification_type": "U",
        "meta_norad_cat_id": 66867,
        "meta_element_set_no": 999,
        "meta_rev_at_epoch": 350,
        "meta_bstar": -0.0011691748,
        "meta_mean_motion_dot": -0.00068351,
        "meta_mean_motion_ddot": 0,
        "tle_line1": "1 66867U 25281V   25360.91668981 -.00068351  00000+0 -11692-2 0  9990",
        "tle_line2": "2 66867  43.0004  36.6616 0001074 242.7959   3.4445 15.50586057  3504"
      },
      "geometry": {
        "type": "Point",
        "coordinates": [
          -136.89709252707183,
          -7.63239657733687
        ]
      }
    },
    {
      "type": "Feature",
      "properties": {
        "norad_id": 66868,
        "name": "STARLINK-36108",
        "group": "last-30-days",
        "lat": -8.922780924623492,
        "lon": -135.47086248947355,
        "alt_km": 415.66380357754133,
        "timestamp": "2025-12-27T05:29:37.917846+00:00",
        "meta_object_name": "STARLINK-36108",
        "meta_object_id": "2025-281W",
        "meta_epoch": "2025-12-26T22:00:01.999584",
        "meta_mean_motion": 15.50679106,
        "meta_eccentricity": 0.0001138,
        "meta_inclination": 43.0002,
        "meta_ra_of_asc_node": 36.6562,
        "meta_arg_of_pericenter": 258.3426,
        "meta_mean_anomaly": 349.7574,
        "meta_ephemeris_type": 0,
        "meta_classification_type": "U",
        "meta_norad_cat_id": 66868,
        "meta_element_set_no": 999,
        "meta_rev_at_epoch": 350,
        "meta_bstar": -0.0033669089,
        "meta_mean_motion_dot": -0.00193739,
        "meta_mean_motion_ddot": 0,
        "tle_line1": "1 66868U 25281W   25360.91668981 -.00193739  00000+0 -33669-2 0  9998",
        "tle_line2": "2 66868  43.0002  36.6562 0001138 258.3426 349.7574 15.50679106  3503"
      },
      "geometry": {
        "type": "Point",
        "coordinates": [
          -135.47086248947355,
          -8.922780924623492
        ]
      }
    },
    {
      "type": "Feature",
      "properties": {
        "norad_id": 66869,
        "name": "STARLINK-36092",
        "group": "last-30-days",
        "lat": -10.13192808655276,
        "lon": -134.1195954469751,
        "alt_km": 415.52395489766786,
        "timestamp": "2025-12-27T05:29:37.917856+00:00",
        "meta_object_name": "STARLINK-36092",
        "meta_object_id": "2025-281X",
        "meta_epoch": "2025-12-26T22:00:01.999584",
        "meta_mean_motion": 15.50532881,
        "meta_eccentricity": 0.00012289,
        "meta_inclination": 43.0004,
        "meta_ra_of_asc_node": 36.651,
        "meta_arg_of_pericenter": 250.3909,
        "meta_mean_anomaly": 359.5716,
        "meta_ephemeris_type": 0,
        "meta_classification_type": "U",
        "meta_norad_cat_id": 66869,
        "meta_element_set_no": 999,
        "meta_rev_at_epoch": 369,
        "meta_bstar": 0.0017450616,
        "meta_mean_motion_dot": 0.00103222,
        "meta_mean_motion_ddot": 0,
        "tle_line1": "1 66869U 25281X   25360.91668981  .00103222  00000+0  17451-2 0  9996",
        "tle_line2": "2 66869  43.0004  36.6510 0001228 250.3909 359.5716 15.50532881  3692"
      },
      "geometry": {
        "type": "Point",
        "coordinates": [
          -134.1195954469751,
          -10.13192808655276
        ]
      }
    },
    {
      "type": "Feature",
      "properties": {
        "norad_id": 66870,
        "name": "STARLINK-36114",
        "group": "last-30-days",
        "lat": -11.411291672082303,
        "lon": -132.67107337483557,
        "alt_km": 415.5670501395889,
        "timestamp": "2025-12-27T05:29:37.917866+00:00",
        "meta_object_name": "STARLINK-36114",
        "meta_object_id": "2025-281Y",
        "meta_epoch": "2025-12-26T22:00:01.999584",
        "meta_mean_motion": 15.50535159,
        "meta_eccentricity": 0.00011842,
        "meta_inclination": 43.0004,
        "meta_ra_of_asc_node": 36.6462,
        "meta_arg_of_pericenter": 243.2743,
        "meta_mean_anomaly": 8.6009,
        "meta_ephemeris_type": 0,
        "meta_classification_type": "U",
        "meta_norad_cat_id": 66870,
        "meta_element_set_no": 999,
        "meta_rev_at_epoch": 356,
        "meta_bstar": 0.0017786764,
        "meta_mean_motion_dot": 0.00105253,
        "meta_mean_motion_ddot": 0,
        "tle_line1": "1 66870U 25281Y   25360.91668981  .00105253  00000+0  17787-2 0  9996",
        "tle_line2": "2 66870  43.0004  36.6462 0001184 243.2743   8.6009 15.50535159  3562"
      },
      "geometry": {
        "type": "Point",
        "coordinates": [
          -132.67107337483557,
          -11.411291672082303
        ]
      }
    }
  ]
}